NORAD_CAT_ID,OBJECT_NAME,OBJECT_TYPE,EPOCH,MEAN_MOTION,ECCENTRICITY,INCLINATION,RA_OF_ASC_NODE,ARG_OF_PERICENTER,MEAN_ANOMALY,BSTAR,MEAN_MOTION_DOT,MEAN_MOTION_DDOT,TLE_LINE0,TLE_LINE1,TLE_LINE2,SEMIMAJOR_AXIS,PERIOD,APOGEE,PERIGEE,DECAYED
56480.0,STARLINK-6214,PAYLOAD,2023-12-21 03:04:56,14.98328608,0.0002823,70.0002,5.695,266.4287,93.6549,0.00014339,1.618e-05,0.0,0 STARLINK-6214,1 56480U 23064AJ  23355.12843596  .00001618  00000-0  14339-3 0  9993,2 56480  70.0002   5.6950 0002823 266.4287  93.6549 14.98328608 34832,6950.197,96.107,574.024,570.1,0.0
56480.0,STARLINK-6214,PAYLOAD,2023-12-21 11:05:36,14.98332498,0.0002679,70.0002,4.8532,263.3175,96.7679,0.00017486,1.994e-05,0.0,0 STARLINK-6214,1 56480U 23064AJ  23355.46223291  .00001994  00000-0  17486-3 0  9997,2 56480  70.0002   4.8532 0002679 263.3175  96.7679 14.98332498 34526,6950.185,96.107,573.912,570.188,0.0
56480.0,STARLINK-6214,PAYLOAD,2023-12-22 03:06:57,14.98354373,0.0002184,70.0012,3.1722,244.1053,115.9881,-0.00044063,-5.349e-05,0.0,0 STARLINK-6214,1 56480U 23064AJ  23356.12983747 -.00005349  00000-0 -44063-3 0  9991,2 56480  70.0012   3.1722 0002184 244.1053 115.9881 14.98354373 34988,6950.118,96.105,573.5,570.465,0.0
56480.0,STARLINK-6214,PAYLOAD,2023-12-22 09:31:30,14.98345507,0.0002211,70.0013,2.4987,245.0845,115.0084,-0.00038706,-4.71e-05,0.0,0 STARLINK-6214,1 56480U 23064AJ  23356.39687863 -.00004710  00000-0 -38706-3 0  9998,2 56480  70.0013   2.4987 0002211 245.0845 115.0084 14.98345507 34664,6950.145,96.106,573.547,570.473,0.0
56480.0,STARLINK-6214,PAYLOAD,2023-12-23 03:08:59,14.98331813,0.0002799,70.0004,0.6458,261.3658,98.7184,-5.5517e-05,-7.55e-06,0.0,0 STARLINK-6214,1 56480U 23064AJ  23357.13123867 -.00000755  00000-0 -55517-4 0  9995,2 56480  70.0004   0.6458 0002799 261.3658  98.7184 14.98331813 35137,6950.187,96.107,573.998,570.107,0.0
56480.0,STARLINK-6214,PAYLOAD,2023-12-23 11:09:39,14.98334167,0.0002747,70.0005,359.8038,259.7278,100.3572,-1.8389e-05,-3.12e-06,0.0,0 STARLINK-6214,1 56480U 23064AJ  23357.46503552 -.00000312  00000-0 -18389-4 0  9999,2 56480  70.0005 359.8038 0002747 259.7278 100.3572 14.98334167 34824,6950.18,96.107,573.954,570.136,0.0
56480.0,STARLINK-6214,PAYLOAD,2023-12-24 03:10:59,14.98327344,0.0002696,70.0006,358.1203,258.7949,101.2907,4.5267e-05,4.47e-06,0.0,0 STARLINK-6214,1 56480U 23064AJ  23358.13263782  .00000447  00000-0  45267-4 0  9994,2 56480  70.0006 358.1203 0002696 258.7949 101.2907 14.98327344 35280,6950.201,96.107,573.94,570.192,0.0
56480.0,STARLINK-6214,PAYLOAD,2023-12-24 09:35:32,14.983279,0.0002675,70.0007,357.4471,260.017,100.0688,4.9159e-05,4.94e-06,0.0,0 STARLINK-6214,1 56480U 23064AJ  23358.39967777  .00000494  00000-0  49159-4 0  9993,2 56480  70.0007 357.4471 0002675 260.0170 100.0688 14.98327900 34964,6950.199,96.107,573.924,570.205,0.0
56480.0,STARLINK-6214,PAYLOAD,2023-12-25 03:13:00,14.98331055,0.0002679,70.0006,355.5953,258.7941,101.2917,2.0856e-05,1.56e-06,0.0,0 STARLINK-6214,1 56480U 23064AJ  23359.13403641  .00000156  00000-0  20856-4 0  9999,2 56480  70.0006 355.5953 0002679 258.7941 101.2917 14.98331055 35438,6950.19,96.107,573.917,570.193,0.0
56480.0,STARLINK-6214,PAYLOAD,2023-12-25 09:37:32,14.98331618,0.0002671,70.0008,354.9221,258.8352,101.2507,2.5862e-05,2.16e-06,0.0,0 STARLINK-6214,1 56480U 23064AJ  23359.40107570  .00000216  00000-0  25862-4 0  9990,2 56480  70.0008 354.9221 0002671 258.8352 101.2507 14.98331618 35115,6950.188,96.107,573.909,570.196,0.0
56480.0,STARLINK-6214,PAYLOAD,2023-12-26 03:15:01,14.98329275,0.0002671,70.0008,353.071,261.9132,98.1724,-3.8654e-06,-1.39e-06,0.0,0 STARLINK-6214,1 56480U 23064AJ  23360.13543752 -.00000139  00000-0 -38654-5 0  9998,2 56480  70.0008 353.0710 0002671 261.9132  98.1724 14.98329275 35581,6950.195,96.107,573.917,570.204,0.0
56480.0,STARLINK-6214,PAYLOAD,2023-12-26 09:39:34,14.98328458,0.0002694,70.0008,352.3976,263.355,96.7303,-1.3904e-05,-2.59e-06,0.0,0 STARLINK-6214,1 56480U 23064AJ  23360.40247858 -.00000259  00000-0 -13904-4 0  9999,2 56480  70.0008 352.3976 0002694 263.3550  96.7303 14.98328458 35266,6950.198,96.107,573.935,570.19,0.0
56480.0,STARLINK-6214,PAYLOAD,2023-12-27 03:17:02,14.983322,0.0002791,70.0006,350.5457,265.3422,94.7418,5.293e-07,-8.7e-07,0.0,0 STARLINK-6214,1 56480U 23064AJ  23361.13683534 -.00000087  00000-0  52930-6 0  9997,2 56480  70.0006 350.5457 0002791 265.3422  94.7418 14.98332200 35733,6950.186,96.107,573.991,570.111,0.0
56480.0,STARLINK-6214,PAYLOAD,2023-12-27 09:41:34,14.98334859,0.0002756,70.0006,349.8724,265.0911,94.9933,3.2973e-05,3.01e-06,0.0,0 STARLINK-6214,1 56480U 23064AJ  23361.40387232  .00000301  00000-0  32973-4 0  9994,2 56480  70.0006 349.8724 0002756 265.0911  94.9933 14.98334859 35413,6950.178,96.107,573.958,570.127,0.0
56480.0,STARLINK-6214,PAYLOAD,2023-12-28 03:19:03,14.98329151,0.0002694,70.001,348.0213,265.5851,94.5,4.4717e-05,4.41e-06,0.0,0 STARLINK-6214,1 56480U 23064AJ  23362.13823473  .00000441  00000-0  44717-4 0  9991,2 56480  70.0010 348.0213 0002694 265.5851  94.5000 14.98329151 35882,6950.196,96.107,573.933,570.188,0.0
56480.0,STARLINK-6214,PAYLOAD,2023-12-28 08:07:27,14.98328703,0.0002637,70.001,347.5164,264.4257,95.6601,3.5901e-05,3.35e-06,0.0,0 STARLINK-6214,1 56480U 23064AJ  23362.33851543  .00000335  00000-0  35901-4 0  9999,2 56480  70.0010 347.5164 0002637 264.4257  95.6601 14.98328703 35551,6950.197,96.107,573.895,570.229,0.0
56480.0,STARLINK-6214,PAYLOAD,2023-12-28 22:32:40,14.98330132,0.0002551,70.0013,346.0013,261.8972,98.1898,8.059e-06,3e-08,0.0,0 STARLINK-6214,1 56480U 23064AJ  23362.93935475  .00000003  00000-0  80590-5 0  9999,2 56480  70.0013 346.0013 0002551 261.8972  98.1898 14.98330132 35646,6950.192,96.107,573.83,570.284,0.0
56480.0,STARLINK-6214,PAYLOAD,2023-12-29 03:21:04,14.98328758,0.0002777,70.0006,345.4956,265.821,94.2631,-3.8903e-05,-5.57e-06,0.0,0 STARLINK-6214,1 56480U 23064AJ  23363.13963656 -.00000557  00000-0 -38903-4 0  9990,2 56480  70.0006 345.4956 0002777 265.8210  94.2631 14.98328758 36033,6950.197,96.107,573.992,570.132,0.0
56480.0,STARLINK-6214,PAYLOAD,2023-12-29 08:09:29,14.98326125,0.0002317,70.0019,344.9926,263.9183,96.1713,-2.6018e-05,-4.03e-06,0.0,0 STARLINK-6214,1 56480U 23064AJ  23363.33992012 -.00000403  00000-0 -26018-4 0  9994,2 56480  70.0019 344.9926 0002317 263.9183  96.1713 14.98326125 35707,6950.205,96.107,573.68,570.46,0.0
56480.0,STARLINK-6214,PAYLOAD,2023-12-30 03:23:05,14.98326673,0.0002663,70.002,342.9746,242.8051,117.2836,4.5871e-05,4.54e-06,0.0,0 STARLINK-6214,1 56480U 23064AJ  23364.14103512  .00000454  00000-0  45871-4 0  9995,2 56480  70.0020 342.9746 0002663 242.8051 117.2836 14.98326673 36183,6950.203,96.107,573.919,570.217,0.0
56480.0,STARLINK-6214,PAYLOAD,2023-12-30 08:11:29,14.98311987,0.0002752,70.0013,342.4673,251.1274,108.9587,0.00028862,3.351e-05,0.0,0 STARLINK-6214,1 56480U 23064AJ  23364.34131900  .00003351  00000-0  28862-3 0  9998,2 56480  70.0013 342.4673 0002752 251.1274 108.9587 14.98311987 36214,6950.249,96.108,574.026,570.201,0.0
56480.0,STARLINK-6214,PAYLOAD,2023-12-31 03:25:06,14.98327784,0.0002753,70.001,340.4464,260.881,99.2038,3.3157e-05,3.03e-06,0.0,0 STARLINK-6214,1 56480U 23064AJ  23365.14243509  .00000303  00000-0  33157-4 0  9994,2 56480  70.0010 340.4464 0002753 260.8810  99.2038 14.98327784 36339,6950.2,96.107,573.978,570.151,0.0
56480.0,STARLINK-6214,PAYLOAD,2023-12-31 22:38:43,14.9833019,0.0002863,70.0007,338.4263,267.6289,92.4542,3.4921e-06,-5.1e-07,0.0,0 STARLINK-6214,1 56480U 23064AJ  23365.94355515 -.00000051  00000-0  34921-5 0  9995,2 56480  70.0007 338.4263 0002863 267.6289  92.4542 14.98330190 36099,6950.192,96.107,574.047,570.067,0.0
56480.0,STARLINK-6214,PAYLOAD,2024-01-01 03:27:07,14.98329395,0.0002885,70.0007,337.9213,267.2754,92.8074,-6.916e-06,-1.75e-06,0.0,0 STARLINK-6214,1 56480U 23064AJ  24001.14383585 -.00000175  00000-0 -69160-5 0  9994,2 56480  70.0007 337.9213 0002885 267.2754  92.8074 14.98329395 36487,6950.195,96.107,574.065,570.055,0.0
56480.0,STARLINK-6214,PAYLOAD,2024-01-01 08:15:31,14.98332018,0.0002914,70.0005,337.4153,270.7798,89.3027,2.3917e-05,1.92e-06,0.0,0 STARLINK-6214,1 56480U 23064AJ  24001.34411351  .00000192  00000-0  23917-4 0  9995,2 56480  70.0005 337.4153 0002914 270.7798  89.3027 14.98332018 36152,6950.187,96.107,574.077,570.026,0.0
56480.0,STARLINK-6214,PAYLOAD,2024-01-01 22:40:43,14.98331677,0.0002933,70.0005,335.9001,270.7639,89.3184,2.9251e-05,2.56e-06,0.0,0 STARLINK-6214,1 56480U 23064AJ  24001.94495270  .00000256  00000-0  29251-4 0  9991,2 56480  70.0005 335.9001 0002933 270.7639  89.3184 14.98331677 36246,6950.188,96.107,574.091,570.014,0.0
56480.0,STARLINK-6214,PAYLOAD,2024-01-02 03:29:07,14.98331008,0.0002736,70.0007,335.3945,266.8116,93.273,8.0869e-05,8.72e-06,0.0,0 STARLINK-6214,1 56480U 23064AJ  24002.14523121  .00000872  00000-0  80869-4 0  9997,2 56480  70.0007 335.3945 0002736 266.8116  93.2730 14.98331008 36638,6950.19,96.107,573.956,570.153,0.0
56480.0,STARLINK-6214,PAYLOAD,2024-01-02 08:17:32,14.98326998,0.0002786,70.0009,334.8901,271.3272,88.7568,0.00025322,2.929e-05,0.0,0 STARLINK-6214,1 56480U 23064AJ  24002.34550930  .00002929  00000-0  25322-3 0  9994,2 56480  70.0009 334.8901 0002786 271.3272  88.7568 14.98326998 36309,6950.202,96.107,574.004,570.131,0.0
56480.0,STARLINK-6214,PAYLOAD,2024-01-02 22:42:44,14.98329875,0.0002305,70.0023,333.3757,251.4481,108.6428,5.7465e-05,5.93e-06,0.0,0 STARLINK-6214,1 56480U 23064AJ  24002.94635024  .00000593  00000-0  57465-4 0  9997,2 56480  70.0023 333.3757 0002305 251.4481 108.6428 14.98329875 36399,6950.193,96.107,573.66,570.456,0.0
56480.0,STARLINK-6214,PAYLOAD,2024-01-03 03:31:09,14.98330549,0.000224,70.0017,332.8712,248.3222,111.7699,-3.2556e-05,-4.81e-06,0.0,0 STARLINK-6214,1 56480U 23064AJ  24003.14663266 -.00000481  00000-0 -32556-4 0  9991,2 56480  70.0017 332.8712 0002240 248.3222 111.7699 14.98330549 36781,6950.191,96.107,573.613,570.499,0.0
